COSMOS 2433 (720)       
1 32275U 07052A   25216.16644121 -.00000077  00000+0  00000+0 0  9997
2 32275  65.7511 326.5893 0003931 214.1107 145.8851  2.13104244138302
COSMOS 2432 (719)       
1 32276U 07052B   25217.17880514 -.00000072  00000+0  00000+0 0  9993
2 32276  65.7663 326.6771 0007852 318.1313  43.4350  2.13103233138356
COSMOS 2434 (721)       
1 32393U 07065A   25217.48841613  .00000086  00000+0  00000+0 0  9992
2 32393  64.3188 202.5632 0000771 335.2357 210.1264  2.13101359137041
COSMOS 2436 (723)       
1 32395U 07065C   25217.24580604  .00000087  00000+0  00000+0 0  9999
2 32395  64.3273 202.6402 0016801 353.3048 139.5908  2.13100169136993
COSMOS 2456 (730)       
1 36111U 09070A   25217.27456866  .00000000  00000+0  00000+0 0  9997
2 36111  64.8233  81.7638 0002905 342.3029 195.2502  2.13103826121691
COSMOS 2457 (733)       
1 36112U 09070B   25217.58385801  .00000004  00000+0  00000+0 0  9996
2 36112  64.8086  81.6035 0004842 131.7565  53.4175  2.13101286121706
COSMOS 2460 (732)       
1 36402U 10007C   25217.43373943 -.00000069  00000+0  00000+0 0  9990
2 36402  65.5991 325.1384 0001860 165.0383 262.4947  2.13106671120003
COSMOS 2476 (744)       
1 37867U 11064A   25217.39628141  .00000002  00000+0  00000+0 0  9994
2 37867  65.0877  83.5468 0021741 234.0702 306.2858  2.13101634107037
COSMOS 2477 (745)       
1 37868U 11064B   25217.63079951  .00000004  00000+0  00000+0 0  9993
2 37868  65.0947  83.6154 0018826 234.8183 305.7094  2.13103142107032
COSMOS 2475 (743)       
1 37869U 11064C   25217.22488089  .00000000  00000+0  00000+0 0  9991
2 37869  65.1013  83.6478 0023897 250.3530 295.3059  2.13101948107037
COSMOS 2485 (747)       
1 39155U 13019A   25217.09956136 -.00000002  00000+0  00000+0 0  9994
2 39155  65.2409  84.2262 0022214 229.8006 130.0863  2.13104706 95541
COSMOS 2492 (754)       
1 39620U 14012A   25217.05726968 -.00000071  00000+0  00000+0 0  9995
2 39620  65.4780 324.6675 0010850 314.6747  45.2610  2.13103296 88507
COSMOS 2500 (755)       
1 40001U 14032A   25216.29265649 -.00000075  00000+0  00000+0 0  9995
2 40001  65.4145 324.4659 0008377 195.2986 164.6998  2.13106125 86705
COSMOS 2501 (702K)      
1 40315U 14075A   25217.01982341  .00000086  00000+0  00000+0 0  9997
2 40315  63.6181 201.3156 0021786 211.7887 148.0865  2.13101448 83115
COSMOS 2514 (751)       
1 41330U 16008A   25217.47296125 -.00000068  00000+0  00000+0 0  9992
2 41330  65.2051 323.8301 0012323 204.5199 155.4476  2.13102690 73896
COSMOS 2522 (752)       
1 42939U 17055A   25217.31158226  .00000087  00000+0  00000+0 0  9993
2 42939  64.0799 202.6345 0010482 241.0506 118.8525  2.13101968 61243
COSMOS 2527 (756)       
1 43508U 18053A   25216.33355390 -.00000010  00000+0  00000+0 0  9994
2 43508  65.3990  84.4901 0006695 223.3024 136.7238  2.13102288 55526
COSMOS 2529 (757)       
1 43687U 18086A   25215.49267716  .00000097  00000+0  00000+0 0  9992
2 43687  64.2957 203.3203 0011822 257.9811 101.8984  2.13102081 52515
COSMOS 2534 (758)       
1 44299U 19030A   25217.43339154  .00000087  00000+0  00000+0 0  9993
2 44299  64.3693 203.2471 0013381 277.0294 266.0876  2.13102321 48199
COSMOS 2544 (759)       
1 44850U 19088A   25214.40092767 -.00000029  00000+0  00000+0 0  9996
2 44850  65.3855  84.3838 0011833 253.4666 106.4770  2.13102103 43923
COSMOS 2545 (760)       
1 45358U 20018A   25212.25083500 -.00000085  00000+0  00000+0 0  9993
2 45358  64.5451 323.6846 0009961 233.1154 126.8174  2.13102601 41828
COSMOS 2547 (705K)      
1 46805U 20075A   25217.13007121  .00000089  00000+0  00000+0 0  9994
2 46805  64.5993 203.0221 0009083 240.7160 119.2028  2.13100124 37176
COSMOS 2557 (706K)      
1 52984U 22075A   25215.41947794 -.00000081  00000+0  00000+0 0  9992
2 52984  64.4807 325.6667 0011521 272.3208  87.5694  2.13102310 23948
COSMOS 2559 (707K)      
1 54031U 22130A   25216.64611329 -.00000075  00000+0  00000+0 0  9990
2 54031  64.4527 325.7178 0012895 182.4194 177.5974  2.13101719 21941
COSMOS 2564 (761)       
1 54377U 22161A   25216.95994935  .00000091  00000+0  00000+0 0  9995
2 54377  64.7411 203.2069 0011803 224.9741 134.9407  2.13102113 20896
COSMOS 2569 (703K)      
1 57517U 23114A   25216.97439748 -.00000003  00000+0  00000+0 0  9995
2 57517  65.1195  83.2985 0009362 296.8039  63.1820  2.13103838 15528
COSMOS 2584 (704K)      
1 63130U 25042A   25217.33004174  .00000001  00000+0  00000+0 0  9994
2 63130  64.9014  83.5542 0006004 210.4865 149.5614  2.13103907  3315
